NORAD_CAT_ID,OBJECT_NAME,OBJECT_TYPE,EPOCH,MEAN_MOTION,ECCENTRICITY,INCLINATION,RA_OF_ASC_NODE,ARG_OF_PERICENTER,MEAN_ANOMALY,BSTAR,MEAN_MOTION_DOT,MEAN_MOTION_DDOT,TLE_LINE0,TLE_LINE1,TLE_LINE2,SEMIMAJOR_AXIS,PERIOD,APOGEE,PERIGEE,DECAYED
52282.0,STARLINK-3783,PAYLOAD,2023-12-03 01:07:26,15.08835258,0.0001516,53.2153,214.5551,99.4668,260.6496,0.00013961,1.934e-05,0.0,0 STARLINK-3783,1 52282U 22041X   23337.04683200  .00001934  00000-0  13961-3 0  9999,2 52282  53.2153 214.5551 0001516  99.4668 260.6496 15.08835258 89553,6917.895,95.438,540.809,538.711,0.0
52282.0,STARLINK-3783,PAYLOAD,2023-12-03 20:12:05,15.08816795,0.0001582,53.2154,210.984,95.5959,264.5214,0.00058941,9.099e-05,0.0,0 STARLINK-3783,1 52282U 22041X   23337.84172470  .00009099  00000-0  58941-3 0  9996,2 52282  53.2154 210.9840 0001582  95.5959 264.5214 15.08816795 90893,6917.951,95.439,540.911,538.722,0.0
52282.0,STARLINK-3783,PAYLOAD,2023-12-04 00:58:14,15.08822211,0.0001529,53.2156,210.092,93.709,266.4077,0.00030066,4.498e-05,0.0,0 STARLINK-3783,1 52282U 22041X   23338.04044562  .00004498  00000-0  30066-3 0  9995,2 52282  53.2156 210.0920 0001529  93.7090 266.4077 15.08822211 89708,6917.935,95.439,540.858,538.742,0.0
52282.0,STARLINK-3783,PAYLOAD,2023-12-04 18:27:29,15.08842863,0.0001471,53.2153,206.8221,90.4584,269.6577,0.00056784,8.761e-05,0.0,0 STARLINK-3783,1 52282U 22041X   23338.76908644  .00008761  00000-0  56784-3 0  9996,2 52282  53.2153 206.8221 0001471  90.4584 269.6577 15.08842863 91034,6917.872,95.437,540.754,538.719,0.0
52282.0,STARLINK-3783,PAYLOAD,2023-12-05 00:49:01,15.08849965,0.0001488,53.2158,205.6316,92.5656,267.5507,0.00068825,0.00010685,0.0,0 STARLINK-3783,1 52282U 22041X   23339.03404412  .00010685  00000-0  68825-3 0  9998,2 52282  53.2158 205.6316 0001488  92.5656 267.5507 15.08849965 89859,6917.85,95.437,540.744,538.686,0.0
52282.0,STARLINK-3783,PAYLOAD,2023-12-06 00:39:47,15.08851535,0.0001284,53.2142,201.1731,114.3877,245.7249,0.00025531,3.779e-05,0.0,0 STARLINK-3783,1 52282U 22041X   23340.02763674  .00003779  00000-0  25531-3 0  9990,2 52282  53.2142 201.1731 0001284 114.3877 245.7249 15.08851535 91227,6917.845,95.437,540.598,538.822,0.0
52282.0,STARLINK-3783,PAYLOAD,2023-12-07 14:49:03,15.08839359,0.0001884,53.2155,194.0349,110.3616,249.7579,1.1014e-05,-1.13e-06,0.0,0 STARLINK-3783,1 52282U 22041X   23341.61739879 -.00000113  00000-0  11014-4 0  9998,2 52282  53.2155 194.0349 0001884 110.3616 249.7579 15.08839359 90240,6917.882,95.438,541.051,538.444,0.0
52282.0,STARLINK-3783,PAYLOAD,2023-12-08 00:21:22,15.08841703,0.0001344,53.215,192.2509,100.6936,259.4207,7.7927e-05,9.53e-06,0.0,0 STARLINK-3783,1 52282U 22041X   23342.01483815  .00000953  00000-0  77927-4 0  9995,2 52282  53.2150 192.2509 0001344 100.6936 259.4207 15.08841703 90300,6917.875,95.437,540.67,538.81,0.0
52282.0,STARLINK-3783,PAYLOAD,2023-12-09 14:30:37,15.08836959,0.0001704,53.2138,185.1133,107.4607,252.6571,1.643e-05,-2.7e-07,0.0,0 STARLINK-3783,1 52282U 22041X   23343.60460256 -.00000027  00000-0  16430-4 0  9990,2 52282  53.2138 185.1133 0001704 107.4607 252.6571 15.08836959 90542,6917.89,95.438,540.933,538.576,0.0
52282.0,STARLINK-3783,PAYLOAD,2023-12-09 16:06:01,15.08835294,0.0001431,53.2148,184.8175,100.6341,259.4812,-1.331e-05,-5e-06,0.0,0 STARLINK-3783,1 52282U 22041X   23343.67084630 -.00000500  00000-0 -13310-4 0  9996,2 52282  53.2148 184.8175 0001431 100.6341 259.4812 15.08835294 91772,6917.895,95.438,540.75,538.77,0.0
52282.0,STARLINK-3783,PAYLOAD,2023-12-09 22:27:33,15.08834495,0.0001357,53.215,183.6286,94.6712,265.4435,1.8244e-05,2e-08,0.0,0 STARLINK-3783,1 52282U 22041X   23343.93580809  .00000002  00000-0  18244-4 0  9990,2 52282  53.2150 183.6286 0001357  94.6712 265.4435 15.08834495 90595,6917.897,95.438,540.701,538.823,0.0
52282.0,STARLINK-3783,PAYLOAD,2023-12-10 19:07:34,15.08835531,0.0001323,53.2156,179.7625,90.256,269.8584,7.6723e-05,9.33e-06,0.0,0 STARLINK-3783,1 52282U 22041X   23344.79692821  .00000933  00000-0  76723-4 0  9992,2 52282  53.2156 179.7625 0001323  90.2560 269.8584 15.08835531 91945,6917.894,95.438,540.674,538.844,0.0
52282.0,STARLINK-3783,PAYLOAD,2023-12-10 20:42:57,15.08835803,0.0001306,53.2155,179.4654,89.7338,270.3804,7.4816e-05,9.03e-06,0.0,0 STARLINK-3783,1 52282U 22041X   23344.86316798  .00000903  00000-0  74816-4 0  9994,2 52282  53.2155 179.4654 0001306  89.7338 270.3804 15.08835803 90730,6917.893,95.438,540.662,538.855,0.0
52282.0,STARLINK-3783,PAYLOAD,2023-12-11 20:33:44,15.08841968,0.0001351,53.2157,175.0048,87.6535,272.4611,0.0001034,1.358e-05,0.0,0 STARLINK-3783,1 52282U 22041X   23345.85676476  .00001358  00000-0  10340-3 0  9992,2 52282  53.2157 175.0048 0001351  87.6535 272.4611 15.08841968 90881,6917.874,95.437,540.674,538.805,0.0
52282.0,STARLINK-3783,PAYLOAD,2023-12-12 18:49:08,15.0884691,0.0001312,53.2152,170.8479,90.4268,269.6874,9.2038e-05,1.177e-05,0.0,0 STARLINK-3783,1 52282U 22041X   23346.78412086  .00001177  00000-0  92038-4 0  9994,2 52282  53.2152 170.8479 0001312  90.4268 269.6874 15.08846910 91027,6917.859,95.437,540.632,538.817,0.0
52282.0,STARLINK-3783,PAYLOAD,2023-12-13 18:39:55,15.08845186,0.0001334,53.2165,166.3823,89.2115,270.903,7.0347e-06,-1.76e-06,0.0,0 STARLINK-3783,1 52282U 22041X   23347.77772079 -.00000176  00000-0  70347-5 0  9994,2 52282  53.2165 166.3823 0001334  89.2115 270.9030 15.08845186 92399,6917.865,95.437,540.652,538.807,0.0
52282.0,STARLINK-3783,PAYLOAD,2023-12-14 18:30:42,15.08839995,0.0001421,53.2172,161.9217,97.351,262.7644,2.2766e-06,-2.52e-06,0.0,0 STARLINK-3783,1 52282U 22041X   23348.77132246 -.00000252  00000-0  22766-5 0  9998,2 52282  53.2172 161.9217 0001421  97.3510 262.7644 15.08839995 92549,6917.88,95.438,540.728,538.762,0.0
52282.0,STARLINK-3783,PAYLOAD,2023-12-15 18:21:29,15.08835769,0.0001409,53.2171,157.459,94.7713,265.344,2.3357e-05,8.4e-07,0.0,0 STARLINK-3783,1 52282U 22041X   23349.76492573  .00000084  00000-0  23357-4 0  9998,2 52282  53.2171 157.4590 0001409  94.7713 265.3440 15.08835769 91473,6917.893,95.438,540.733,538.784,0.0
52282.0,STARLINK-3783,PAYLOAD,2023-12-16 16:36:53,15.08839418,0.0001384,53.2172,153.298,101.4475,258.6673,7.2423e-05,8.65e-06,0.0,0 STARLINK-3783,1 52282U 22041X   23350.69228385  .00000865  00000-0  72423-4 0  9995,2 52282  53.2172 153.2980 0001384 101.4475 258.6673 15.08839418 92833,6917.882,95.438,540.705,538.79,0.0
52282.0,STARLINK-3783,PAYLOAD,2023-12-17 14:52:17,15.08837606,0.0001233,53.2166,149.1349,85.5454,274.5678,3.2722e-05,2.33e-06,0.0,0 STARLINK-3783,1 52282U 22041X   23351.61964907  .00000233  00000-0  32722-4 0  9992,2 52282  53.2166 149.1349 0001233  85.5454 274.5678 15.08837606 91750,6917.888,95.438,540.606,538.9,0.0
52282.0,STARLINK-3783,PAYLOAD,2023-12-17 18:03:03,15.08838947,0.0001252,53.2163,148.5391,78.3789,281.7344,4.0607e-05,3.58e-06,0.0,0 STARLINK-3783,1 52282U 22041X   23351.75212828  .00000358  00000-0  40607-4 0  9994,2 52282  53.2163 148.5391 0001252  78.3789 281.7344 15.08838947 92995,6917.884,95.438,540.615,538.882,0.0
52282.0,STARLINK-3783,PAYLOAD,2023-12-18 14:43:04,15.08839759,0.0001289,53.2165,144.6718,78.3061,281.8076,8.0201e-05,9.89e-06,0.0,0 STARLINK-3783,1 52282U 22041X   23352.61324676  .00000989  00000-0  80201-4 0  9999,2 52282  53.2165 144.6718 0001289  78.3061 281.8076 15.08839759 91905,6917.881,95.438,540.638,538.854,0.0
52282.0,STARLINK-3783,PAYLOAD,2023-12-18 17:53:50,15.08843537,0.0001352,53.2168,144.0779,76.9587,283.1556,0.00011195,1.494e-05,0.0,0 STARLINK-3783,1 52282U 22041X   23352.74572391  .00001494  00000-0  11195-3 0  9999,2 52282  53.2168 144.0779 0001352  76.9587 283.1556 15.08843537 91926,6917.87,95.437,540.67,538.799,0.0
52282.0,STARLINK-3783,PAYLOAD,2023-12-19 14:33:51,15.08840012,0.0001571,53.2174,140.2125,68.4228,291.6931,6.5161e-05,7.49e-06,0.0,0 STARLINK-3783,1 52282U 22041X   23353.60684874  .00000749  00000-0  65161-4 0  9990,2 52282  53.2174 140.2125 0001571  68.4228 291.6931 15.08840012 92058,6917.88,95.438,540.832,538.659,0.0
52282.0,STARLINK-3783,PAYLOAD,2023-12-19 17:44:37,15.08843253,0.0001346,53.2171,139.617,79.432,280.6823,7.8259e-05,9.58e-06,0.0,0 STARLINK-3783,1 52282U 22041X   23353.73932528  .00000958  00000-0  78259-4 0  9990,2 52282  53.2171 139.6170 0001346  79.4320 280.6823 15.08843253 93297,6917.87,95.437,540.667,538.804,0.0
52282.0,STARLINK-3783,PAYLOAD,2023-12-20 16:00:02,15.08842335,0.0001339,53.2172,135.4565,76.3167,283.7975,-4.0016e-05,-9.25e-06,0.0,0 STARLINK-3783,1 52282U 22041X   23354.66669104 -.00000925  00000-0 -40016-4 0  9996,2 52282  53.2172 135.4565 0001339  76.3167 283.7975 15.08842335 93435,6917.873,95.437,540.665,538.812,0.0
52282.0,STARLINK-3783,PAYLOAD,2023-12-21 14:15:26,15.08839042,0.0001324,53.2172,131.2943,77.1314,282.9826,3.2089e-05,2.23e-06,0.0,0 STARLINK-3783,1 52282U 22041X   23355.59405244  .00000223  00000-0  32089-4 0  9992,2 52282  53.2172 131.2943 0001324  77.1314 282.9826 15.08839042 92353,6917.883,95.438,540.664,538.832,0.0
52282.0,STARLINK-3783,PAYLOAD,2023-12-21 15:50:49,15.08841468,0.0001346,53.2172,130.9933,78.1192,281.9951,3.2039e-05,2.22e-06,0.0,0 STARLINK-3783,1 52282U 22041X   23355.66029068  .00000222  00000-0  32039-4 0  9990,2 52282  53.2172 130.9933 0001346  78.1192 281.9951 15.08841468 92361,6917.876,95.437,540.672,538.81,0.0
52282.0,STARLINK-3783,PAYLOAD,2023-12-22 12:30:49,15.0884004,0.0001367,53.2178,127.1293,95.6413,264.4735,0.00010292,1.35e-05,0.0,0 STARLINK-3783,1 52282U 22041X   23356.52141006  .00001350  00000-0  10292-3 0  9992,2 52282  53.2178 127.1293 0001367  95.6413 264.4735 15.08840040 93718,6917.88,95.438,540.691,538.8,0.0
52282.0,STARLINK-3783,PAYLOAD,2023-12-22 14:06:12,15.08841981,0.0001387,53.2177,126.8333,89.1678,270.9473,0.0001186,1.6e-05,0.0,0 STARLINK-3783,1 52282U 22041X   23356.58764941  .00001600  00000-0  11860-3 0  9997,2 52282  53.2177 126.8333 0001387  89.1678 270.9473 15.08841981 92503,6917.874,95.437,540.699,538.78,0.0
